FLOCK 4G-21             
1 62651U 25009AU  26068.19487675  .00013648  00000+0  49619-3 0  9998
2 62651  97.4032 151.1274 0000465 329.5782  30.5431 15.28381075 63677
STARLINK-33686          
1 63422U 25065Z   26068.45906546  .00027476  00000+0  10038-2 0  9995
2 63422  42.9974 108.4015 0001265 261.5870  98.4839 15.27595088 52802
